CCSDS_OMM_VERS = 2.0
CREATION_DATE  = 
ORIGINATOR     = 

OBJECT_NAME    = STARLINK-36339
OBJECT_ID      = 2026-003G
CENTER_NAME    = EARTH
REF_FRAME      = TEME
TIME_SYSTEM    = UTC
MEAN_ELEMENT_THEORY = SGP/SGP4

EPOCH          = 2026-02-01T22:00:01.999584
MEAN_MOTION    = 15.50536548
ECCENTRICITY   = .00017913
INCLINATION    = 42.9997
RA_OF_ASC_NODE = 70.7411
ARG_OF_PERICENTER = 260.6522
MEAN_ANOMALY   = 109.9900

EPHEMERIS_TYPE = 0
CLASSIFICATION_TYPE = U
NORAD_CAT_ID   = 67340
ELEMENT_SET_NO = 999
REV_AT_EPOCH   = 492
BSTAR          = .99482772E-3
MEAN_MOTION_DOT = .58369E-3
MEAN_MOTION_DDOT = 0

CCSDS_OMM_VERS = 2.0
CREATION_DATE  = 
ORIGINATOR     = 

OBJECT_NAME    = STARLINK-36453
OBJECT_ID      = 2026-003H
CENTER_NAME    = EARTH
REF_FRAME      = TEME
TIME_SYSTEM    = UTC
MEAN_ELEMENT_THEORY = SGP/SGP4

EPOCH          = 2026-02-01T22:00:01.999584
MEAN_MOTION    = 15.50543700
ECCENTRICITY   = .00018032
INCLINATION    = 42.9996
RA_OF_ASC_NODE = 70.7356
ARG_OF_PERICENTER = 263.6922
MEAN_ANOMALY   = 108.8653

EPHEMERIS_TYPE = 0
CLASSIFICATION_TYPE = U
NORAD_CAT_ID   = 67341
ELEMENT_SET_NO = 999
REV_AT_EPOCH   = 492
BSTAR          = .10072864E-2
MEAN_MOTION_DOT = .59125E-3
MEAN_MOTION_DDOT = 0

CCSDS_OMM_VERS = 2.0
CREATION_DATE  = 
ORIGINATOR     = 

OBJECT_NAME    = STARLINK-36432
OBJECT_ID      = 2026-003J
CENTER_NAME    = EARTH
REF_FRAME      = TEME
TIME_SYSTEM    = UTC
MEAN_ELEMENT_THEORY = SGP/SGP4

EPOCH          = 2026-02-01T22:00:01.999584
MEAN_MOTION    = 15.50525729
ECCENTRICITY   = .00012337
INCLINATION    = 42.9995
RA_OF_ASC_NODE = 70.7304
ARG_OF_PERICENTER = 279.0451
MEAN_ANOMALY   = 95.5360

EPHEMERIS_TYPE = 0
CLASSIFICATION_TYPE = U
NORAD_CAT_ID   = 67342
ELEMENT_SET_NO = 999
REV_AT_EPOCH   = 491
BSTAR          = .95508368E-3
MEAN_MOTION_DOT = .55983E-3
MEAN_MOTION_DDOT = 0

CCSDS_OMM_VERS = 2.0
CREATION_DATE  = 
ORIGINATOR     = 

OBJECT_NAME    = STARLINK-36458
OBJECT_ID      = 2026-003K
CENTER_NAME    = EARTH
REF_FRAME      = TEME
TIME_SYSTEM    = UTC
MEAN_ELEMENT_THEORY = SGP/SGP4

EPOCH          = 2026-02-01T22:00:01.999584
MEAN_MOTION    = 15.50538402
ECCENTRICITY   = .00017548
INCLINATION    = 42.9998
RA_OF_ASC_NODE = 70.7265
ARG_OF_PERICENTER = 262.4393
MEAN_ANOMALY   = 113.9422

EPHEMERIS_TYPE = 0
CLASSIFICATION_TYPE = U
NORAD_CAT_ID   = 67343
ELEMENT_SET_NO = 999
REV_AT_EPOCH   = 492
BSTAR          = .98816565E-3
MEAN_MOTION_DOT = .57976E-3
MEAN_MOTION_DDOT = 0

CCSDS_OMM_VERS = 2.0
CREATION_DATE  = 
ORIGINATOR     = 

OBJECT_NAME    = STARLINK-36422
OBJECT_ID      = 2026-003L
CENTER_NAME    = EARTH
REF_FRAME      = TEME
TIME_SYSTEM    = UTC
MEAN_ELEMENT_THEORY = SGP/SGP4

EPOCH          = 2026-02-01T22:00:01.999584
MEAN_MOTION    = 15.50520295
ECCENTRICITY   = .00011536
INCLINATION    = 42.9995
RA_OF_ASC_NODE = 70.7199
ARG_OF_PERICENTER = 276.5661
MEAN_ANOMALY   = 101.8570

EPHEMERIS_TYPE = 0
CLASSIFICATION_TYPE = U
NORAD_CAT_ID   = 67344
ELEMENT_SET_NO = 999
REV_AT_EPOCH   = 491
BSTAR          = .10092779E-2
MEAN_MOTION_DOT = .59192E-3
MEAN_MOTION_DDOT = 0

CCSDS_OMM_VERS = 2.0
CREATION_DATE  = 
ORIGINATOR     = 

OBJECT_NAME    = STARLINK-35676
OBJECT_ID      = 2026-003M
CENTER_NAME    = EARTH
REF_FRAME      = TEME
TIME_SYSTEM    = UTC
MEAN_ELEMENT_THEORY = SGP/SGP4

EPOCH          = 2026-02-01T22:00:01.999584
MEAN_MOTION    = 15.50535486
ECCENTRICITY   = .00019776
INCLINATION    = 42.9998
RA_OF_ASC_NODE = 70.7166
ARG_OF_PERICENTER = 259.6945
MEAN_ANOMALY   = 120.5111

EPHEMERIS_TYPE = 0
CLASSIFICATION_TYPE = U
NORAD_CAT_ID   = 67345
ELEMENT_SET_NO = 999
REV_AT_EPOCH   = 491
BSTAR          = .99739559E-3
MEAN_MOTION_DOT = .5852E-3
MEAN_MOTION_DDOT = 0

CCSDS_OMM_VERS = 2.0
CREATION_DATE  = 
ORIGINATOR     = 

OBJECT_NAME    = STARLINK-36472
OBJECT_ID      = 2026-003N
CENTER_NAME    = EARTH
REF_FRAME      = TEME
TIME_SYSTEM    = UTC
MEAN_ELEMENT_THEORY = SGP/SGP4

EPOCH          = 2026-02-01T22:00:01.999584
MEAN_MOTION    = 15.50546922
ECCENTRICITY   = .0001762
INCLINATION    = 42.9997
RA_OF_ASC_NODE = 70.7115
ARG_OF_PERICENTER = 263.7060
MEAN_ANOMALY   = 118.4224

EPHEMERIS_TYPE = 0
CLASSIFICATION_TYPE = U
NORAD_CAT_ID   = 67346
ELEMENT_SET_NO = 999
REV_AT_EPOCH   = 491
BSTAR          = .10060893E-2
MEAN_MOTION_DOT = .5906E-3
MEAN_MOTION_DDOT = 0

CCSDS_OMM_VERS = 2.0
CREATION_DATE  = 
ORIGINATOR     = 

OBJECT_NAME    = STARLINK-36420
OBJECT_ID      = 2026-003P
CENTER_NAME    = EARTH
REF_FRAME      = TEME
TIME_SYSTEM    = UTC
MEAN_ELEMENT_THEORY = SGP/SGP4

EPOCH          = 2026-02-01T22:00:01.999584
MEAN_MOTION    = 15.50536207
ECCENTRICITY   = .0001893
INCLINATION    = 42.9997
RA_OF_ASC_NODE = 70.7018
ARG_OF_PERICENTER = 261.6541
MEAN_ANOMALY   = 124.3003

EPHEMERIS_TYPE = 0
CLASSIFICATION_TYPE = U
NORAD_CAT_ID   = 67347
ELEMENT_SET_NO = 999
REV_AT_EPOCH   = 492
BSTAR          = .1014677E-2
MEAN_MOTION_DOT = .59549E-3
MEAN_MOTION_DDOT = 0

CCSDS_OMM_VERS = 2.0
CREATION_DATE  = 
ORIGINATOR     = 

OBJECT_NAME    = STARLINK-36467
OBJECT_ID      = 2026-003Q
CENTER_NAME    = EARTH
REF_FRAME      = TEME
TIME_SYSTEM    = UTC
MEAN_ELEMENT_THEORY = SGP/SGP4

EPOCH          = 2026-02-01T22:00:01.999584
MEAN_MOTION    = 15.50550464
ECCENTRICITY   = .00019817
INCLINATION    = 42.9998
RA_OF_ASC_NODE = 70.7073
ARG_OF_PERICENTER = 261.1861
MEAN_ANOMALY   = 122.8642

EPHEMERIS_TYPE = 0
CLASSIFICATION_TYPE = U
NORAD_CAT_ID   = 67348
ELEMENT_SET_NO = 999
REV_AT_EPOCH   = 492
BSTAR          = .96873937E-3
MEAN_MOTION_DOT = .56847E-3
MEAN_MOTION_DDOT = 0

CCSDS_OMM_VERS = 2.0
CREATION_DATE  = 
ORIGINATOR     = 

OBJECT_NAME    = STARLINK-36457
OBJECT_ID      = 2026-003R
CENTER_NAME    = EARTH
REF_FRAME      = TEME
TIME_SYSTEM    = UTC
MEAN_ELEMENT_THEORY = SGP/SGP4

EPOCH          = 2026-02-01T22:00:01.999584
MEAN_MOTION    = 15.50513460
ECCENTRICITY   = .00017666
INCLINATION    = 42.9999
RA_OF_ASC_NODE = 70.6979
ARG_OF_PERICENTER = 260.5911
MEAN_ANOMALY   = 127.4228

EPHEMERIS_TYPE = 0
CLASSIFICATION_TYPE = U
NORAD_CAT_ID   = 67349
ELEMENT_SET_NO = 999
REV_AT_EPOCH   = 492
BSTAR          = .1195567E-2
MEAN_MOTION_DOT = .70265E-3
MEAN_MOTION_DDOT = 0

CCSDS_OMM_VERS = 2.0
CREATION_DATE  = 
ORIGINATOR     = 

OBJECT_NAME    = STARLINK-36475
OBJECT_ID      = 2026-003S
CENTER_NAME    = EARTH
REF_FRAME      = TEME
TIME_SYSTEM    = UTC
MEAN_ELEMENT_THEORY = SGP/SGP4

EPOCH          = 2026-02-01T22:00:01.999584
MEAN_MOTION    = 15.50541764
ECCENTRICITY   = .00019069
INCLINATION    = 42.9995
RA_OF_ASC_NODE = 70.6917
ARG_OF_PERICENTER = 263.3754
MEAN_ANOMALY   = 126.4077

EPHEMERIS_TYPE = 0
CLASSIFICATION_TYPE = U
NORAD_CAT_ID   = 67350
ELEMENT_SET_NO = 999
REV_AT_EPOCH   = 491
BSTAR          = .97267202E-3
MEAN_MOTION_DOT = .57063E-3
MEAN_MOTION_DDOT = 0

CCSDS_OMM_VERS = 2.0
CREATION_DATE  = 
ORIGINATOR     = 

OBJECT_NAME    = STARLINK-36478
OBJECT_ID      = 2026-003T
CENTER_NAME    = EARTH
REF_FRAME      = TEME
TIME_SYSTEM    = UTC
MEAN_ELEMENT_THEORY = SGP/SGP4

EPOCH          = 2026-02-01T22:00:01.999584
MEAN_MOTION    = 15.50521130
ECCENTRICITY   = .0001093
INCLINATION    = 42.9998
RA_OF_ASC_NODE = 70.6865
ARG_OF_PERICENTER = 279.2239
MEAN_ANOMALY   = 112.6181

EPHEMERIS_TYPE = 0
CLASSIFICATION_TYPE = U
NORAD_CAT_ID   = 67351
ELEMENT_SET_NO = 999
REV_AT_EPOCH   = 491
BSTAR          = .99999549E-3
MEAN_MOTION_DOT = .58642E-3
MEAN_MOTION_DDOT = 0

