STARLINK-36339          
1 67340U 26003G   26032.91668981  .00058369  00000+0  99483-3 0  9998
2 67340  42.9997  70.7411 0001791 260.6522 109.9900 15.50536548  4928
STARLINK-36453          
1 67341U 26003H   26032.91668981  .00059125  00000+0  10073-2 0  9997
2 67341  42.9996  70.7356 0001803 263.6922 108.8653 15.50543700  4928
STARLINK-36432          
1 67342U 26003J   26032.91668981  .00055983  00000+0  95508-3 0  9993
2 67342  42.9995  70.7304 0001233 279.0451  95.5360 15.50525729  4913
STARLINK-36458          
1 67343U 26003K   26032.91668981  .00057976  00000+0  98817-3 0  9994
2 67343  42.9998  70.7265 0001754 262.4393 113.9422 15.50538402  4929
STARLINK-36422          
1 67344U 26003L   26032.91668981  .00059192  00000+0  10093-2 0  9996
2 67344  42.9995  70.7199 0001153 276.5661 101.8570 15.50520295  4910
STARLINK-35676          
1 67345U 26003M   26032.91668981  .00058520  00000+0  99740-3 0  9998
2 67345  42.9998  70.7166 0001977 259.6945 120.5111 15.50535486  4916
STARLINK-36472          
1 67346U 26003N   26032.91668981  .00059060  00000+0  10061-2 0  9997
2 67346  42.9997  70.7115 0001762 263.7060 118.4224 15.50546922  4914
STARLINK-36420          
1 67347U 26003P   26032.91668981  .00059549  00000+0  10147-2 0  9995
2 67347  42.9997  70.7018 0001893 261.6541 124.3003 15.50536207  4920
STARLINK-36467          
1 67348U 26003Q   26032.91668981  .00056847  00000+0  96874-3 0  9996
2 67348  42.9998  70.7073 0001981 261.1861 122.8642 15.50550464  4924
STARLINK-36457          
1 67349U 26003R   26032.91668981  .00070265  00000+0  11956-2 0  9994
2 67349  42.9999  70.6979 0001766 260.5911 127.4228 15.50513460  4926
STARLINK-36475          
1 67350U 26003S   26032.91668981  .00057063  00000+0  97267-3 0  9997
2 67350  42.9995  70.6917 0001906 263.3754 126.4077 15.50541764  4916
STARLINK-36478          
1 67351U 26003T   26032.91668981  .00058642  00000+0  10000-2 0  9991
2 67351  42.9998  70.6865 0001093 279.2239 112.6181 15.50521130  4911
